{"type": "FeatureCollection", "features": [ {"type": "Feature", "properties": {"norad_id": 35744, "name": "IRIDIUM 33 DEB", "group": "iridium-33-debris", "lat": -60.67762423021857, "lon": -37.73932175915311, "alt_km": 662.9308935077033, "timestamp": "2025-12-05T05:43:15.495180+00:00", "meta": {"OBJECT_NAME": "IRIDIUM 33 DEB", "OBJECT_ID": "1997-051RX", "EPOCH": "2025-12-03T16:26:33.199008", "MEAN_MOTION": 14.70784036, "ECCENTRICITY": 0.00192992, "INCLINATION": 86.3279, "RA_OF_ASC_NODE": 329.5276, "ARG_OF_PERICENTER": 226.2399, "MEAN_ANOMALY": 133.722, "EPHEMERIS_TYPE": 0, "CLASSIFICATION_TYPE": "U", "NORAD_CAT_ID": 35744, "ELEMENT_SET_NO": 999, "REV_AT_EPOCH": 87198, "BSTAR": 0.0017711667, "MEAN_MOTION_DOT": 0.0001087, "MEAN_MOTION_DDOT": 0}, "tle": {"line1": "1 35744U 97051RX  25337.68510647  .00010870  00000+0  17712-2 0  9997", "line2": "2 35744  86.3279 329.5276 0019299 226.2399 133.7220 14.70784036871988"}}, "geometry": {"type": "Point", "coordinates": [-37.73932175915311, -60.67762423021857]}}, {"type": "Feature", "properties": {"norad_id": 35797, "name": "IRIDIUM 33 DEB", "group": "iridium-33-debris", "lat": 71.30595587230697, "lon": -15.662080703497423, "alt_km": 616.6164554598718, "timestamp": "2025-12-05T05:43:15.495203+00:00", "meta": {"OBJECT_NAME": "IRIDIUM 33 DEB", "OBJECT_ID": "1997-051SF", "EPOCH": "2025-12-04T06:43:04.165248", "MEAN_MOTION": 14.82394656, "ECCENTRICITY": 0.0011901, "INCLINATION": 86.3354, "RA_OF_ASC_NODE": 333.8596, "ARG_OF_PERICENTER": 177.769, "MEAN_ANOMALY": 182.3588, "EPHEMERIS_TYPE": 0, "CLASSIFICATION_TYPE": "U", "NORAD_CAT_ID": 35797, "ELEMENT_SET_NO": 999, "REV_AT_EPOCH": 87215, "BSTAR": 0.0041876, "MEAN_MOTION_DOT": 0.0003372, "MEAN_MOTION_DDOT": 0}, "tle": {"line1": "1 35797U 97051SF  25338.27990932  .00033720  00000+0  41876-2 0  9997", "line2": "2 35797  86.3354 333.8596 0011901 177.7690 182.3588 14.82394656872154"}}, "geometry": {"type": "Point", "coordinates": [-15.662080703497423, 71.30595587230697]}}, {"type": "Feature", "properties": {"norad_id": 35806, "name": "IRIDIUM 33 DEB", "group": "iridium-33-debris", "lat": -19.954285824353345, "lon": 22.601142651612403, "alt_km": 712.6850671683478, "timestamp": "2025-12-05T05:43:15.495215+00:00", "meta": {"OBJECT_NAME": "IRIDIUM 33 DEB", "OBJECT_ID": "1997-051SQ", "EPOCH": "2025-12-04T10:02:10.629312", "MEAN_MOTION": 14.57216644, "ECCENTRICITY": 0.0016293, "INCLINATION": 86.3444, "RA_OF_ASC_NODE": 24.2921, "ARG_OF_PERICENTER": 100.3315, "MEAN_ANOMALY": 259.9731, "EPHEMERIS_TYPE": 0, "CLASSIFICATION_TYPE": "U", "NORAD_CAT_ID": 35806, "ELEMENT_SET_NO": 999, "REV_AT_EPOCH": 86203, "BSTAR": 0.0027811, "MEAN_MOTION_DOT": 0.00012613, "MEAN_MOTION_DDOT": 0}, "tle": {"line1": "1 35806U 97051SQ  25338.41817858  .00012613  00000+0  27811-2 0  9990", "line2": "2 35806  86.3444  24.2921 0016293 100.3315 259.9731 14.57216644862032"}}, "geometry": {"type": "Point", "coordinates": [22.601142651612403, -19.954285824353345]}}, {"type": "Feature", "properties": {"norad_id": 35809, "name": "IRIDIUM 33 DEB", "group": "iridium-33-debris", "lat": -31.2992265257735, "lon": 161.00294566305425, "alt_km": 647.3542127339879, "timestamp": "2025-12-05T05:43:15.495225+00:00", "meta": {"OBJECT_NAME": "IRIDIUM 33 DEB", "OBJECT_ID": "1997-051ST", "EPOCH": "2025-12-01T17:44:51.390816", "MEAN_MOTION": 14.75313912, "ECCENTRICITY": 0.00099663, "INCLINATION": 86.3281, "RA_OF_ASC_NODE": 340.3571, "ARG_OF_PERICENTER": 290.7283, "MEAN_ANOMALY": 69.2867, "EPHEMERIS_TYPE": 0, "CLASSIFICATION_TYPE": "U", "NORAD_CAT_ID": 35809, "ELEMENT_SET_NO": 999, "REV_AT_EPOCH": 86645, "BSTAR": 0.0015973304, "MEAN_MOTION_DOT": 0.00010859, "MEAN_MOTION_DDOT": 0}, "tle": {"line1": "1 35809U 97051ST  25335.73948369  .00010859  00000+0  15973-2 0  9993", "line2": "2 35809  86.3281 340.3571 0009966 290.7283  69.2867 14.75313912866452"}}, "geometry": {"type": "Point", "coordinates": [161.00294566305425, -31.2992265257735]}}, {"type": "Feature", "properties": {"norad_id": 35846, "name": "IRIDIUM 33 DEB", "group": "iridium-33-debris", "lat": 31.27723702234863, "lon": -120.16675957780625, "alt_km": 738.9510703673768, "timestamp": "2025-12-05T05:43:15.495236+00:00", "meta": {"OBJECT_NAME": "IRIDIUM 33 DEB", "OBJECT_ID": "1997-051SW", "EPOCH": "2025-11-15T14:04:07.017312", "MEAN_MOTION": 14.42992821, "ECCENTRICITY": 0.00163082, "INCLINATION": 86.3745, "RA_OF_ASC_NODE": 70.4244, "ARG_OF_PERICENTER": 263.1259, "MEAN_ANOMALY": 96.8086, "EPHEMERIS_TYPE": 0, "CLASSIFICATION_TYPE": "U", "NORAD_CAT_ID": 35846, "ELEMENT_SET_NO": 999, "REV_AT_EPOCH": 70937, "BSTAR": 0.0011049939, "MEAN_MOTION_DOT": 3.722e-05, "MEAN_MOTION_DDOT": 0}, "tle": {"line1": "1 35846U 97051SW  25319.58619233  .00003722  00000+0  11050-2 0  9997", "line2": "2 35846  86.3745  70.4244 0016308 263.1259  96.8086 14.42992821709373"}}, "geometry": {"type": "Point", "coordinates": [-120.16675957780625, 31.27723702234863]}}, {"type": "Feature", "properties": {"norad_id": 35848, "name": "IRIDIUM 33 DEB", "group": "iridium-33-debris", "lat": 83.70809343798453, "lon": 54.40249243679499, "alt_km": 630.8839363323568, "timestamp": "2025-12-05T05:43:15.495246+00:00", "meta": {"OBJECT_NAME": "IRIDIUM 33 DEB", "OBJECT_ID": "1997-051SY", "EPOCH": "2025-12-01T10:21:45.439488", "MEAN_MOTION": 14.7824162, "ECCENTRICITY": 0.00067103, "INCLINATION": 86.3925, "RA_OF_ASC_NODE": 21.2088, "ARG_OF_PERICENTER": 240.9704, "MEAN_ANOMALY": 119.0844, "EPHEMERIS_TYPE": 0, "CLASSIFICATION_TYPE": "U", "NORAD_CAT_ID": 35848, "ELEMENT_SET_NO": 999, "REV_AT_EPOCH": 66523, "BSTAR": 0.0018930249, "MEAN_MOTION_DOT": 0.00013775, "MEAN_MOTION_DDOT": 0}, "tle": {"line1": "1 35848U 97051SY  25335.43177592  .00013775  00000+0  18930-2 0  9991", "line2": "2 35848  86.3925  21.2088 0006710 240.9704 119.0844 14.78241620665238"}}, "geometry": {"type": "Point", "coordinates": [54.40249243679499, 83.70809343798453]}}, {"type": "Feature", "properties": {"norad_id": 35850, "name": "IRIDIUM 33 DEB", "group": "iridium-33-debris", "lat": 45.05172670281861, "lon": -8.673676749828463, "alt_km": 635.8074200971832, "timestamp": "2025-12-05T05:43:15.495256+00:00", "meta": {"OBJECT_NAME": "IRIDIUM 33 DEB", "OBJECT_ID": "1997-051TA", "EPOCH": "2025-12-02T07:40:10.229376", "MEAN_MOTION": 14.7843662, "ECCENTRICITY": 0.0007989, "INCLINATION": 86.3497, "RA_OF_ASC_NODE": 348.9861, "ARG_OF_PERICENTER": 227.4621, "MEAN_ANOMALY": 132.5925, "EPHEMERIS_TYPE": 0, "CLASSIFICATION_TYPE": "U", "NORAD_CAT_ID": 35850, "ELEMENT_SET_NO": 999, "REV_AT_EPOCH": 71203, "BSTAR": 0.0019125, "MEAN_MOTION_DOT": 0.00013983, "MEAN_MOTION_DDOT": 0}, "tle": {"line1": "1 35850U 97051TA  25336.31956284  .00013983  00000+0  19125-2 0  9993", "line2": "2 35850  86.3497 348.9861 0007989 227.4621 132.5925 14.78436620712037"}}, "geometry": {"type": "Point", "coordinates": [-8.673676749828463, 45.05172670281861]}}, {"type": "Feature", "properties": {"norad_id": 35915, "name": "IRIDIUM 33 DEB", "group": "iridium-33-debris", "lat": -65.67539950946012, "lon": -21.74741680303622, "alt_km": 633.8172532345461, "timestamp": "2025-12-05T05:43:15.495267+00:00", "meta": {"OBJECT_NAME": "IRIDIUM 33 DEB", "OBJECT_ID": "1997-051TY", "EPOCH": "2025-12-03T18:19:42.417696", "MEAN_MOTION": 14.80347774, "ECCENTRICITY": 0.00098177, "INCLINATION": 86.3435, "RA_OF_ASC_NODE": 347.0587, "ARG_OF_PERICENTER": 222.269, "MEAN_ANOMALY": 137.7775, "EPHEMERIS_TYPE": 0, "CLASSIFICATION_TYPE": "U", "NORAD_CAT_ID": 35915, "ELEMENT_SET_NO": 999, "REV_AT_EPOCH": 7953, "BSTAR": 0.002591589, "MEAN_MOTION_DOT": 0.00019836, "MEAN_MOTION_DDOT": 0}, "tle": {"line1": "1 35915U 97051TY  25337.76368539  .00019836  00000+0  25916-2 0  9993", "line2": "2 35915  86.3435 347.0587 0009817 222.2690 137.7775 14.80347774 79532"}}, "geometry": {"type": "Point", "coordinates": [-21.74741680303622, -65.67539950946012]}}, {"type": "Feature", "properties": {"norad_id": 35918, "name": "IRIDIUM 33 DEB", "group": "iridium-33-debris", "lat": 18.54911297234695, "lon": -102.17629744548067, "alt_km": 706.622485673026, "timestamp": "2025-12-05T05:43:15.495278+00:00", "meta": {"OBJECT_NAME": "IRIDIUM 33 DEB", "OBJECT_ID": "1997-051UB", "EPOCH": "2025-11-30T01:41:55.281408", "MEAN_MOTION": 14.51050885, "ECCENTRICITY": 0.00264066, "INCLINATION": 86.4001, "RA_OF_ASC_NODE": 81.2516, "ARG_OF_PERICENTER": 211.3482, "MEAN_ANOMALY": 332.4953, "EPHEMERIS_TYPE": 0, "CLASSIFICATION_TYPE": "U", "NORAD_CAT_ID": 35918, "ELEMENT_SET_NO": 999, "REV_AT_EPOCH": 85023, "BSTAR": 0.0014523463, "MEAN_MOTION_DOT": 5.795e-05, "MEAN_MOTION_DDOT": 0}, "tle": {"line1": "1 35918U 97051UB  25334.07077872  .00005795  00000+0  14523-2 0  9995", "line2": "2 35918  86.4001  81.2516 0026406 211.3482 332.4953 14.51050885850233"}}, "geometry": {"type": "Point", "coordinates": [-102.17629744548067, 18.54911297234695]}}, {"type": "Feature", "properties": {"norad_id": 35929, "name": "IRIDIUM 33 DEB", "group": "iridium-33-debris", "lat": -18.733500881996644, "lon": -45.055992506103046, "alt_km": 563.5062717767305, "timestamp": "2025-12-05T05:43:15.495288+00:00", "meta": {"OBJECT_NAME": "IRIDIUM 33 DEB", "OBJECT_ID": "1997-051UN", "EPOCH": "2025-12-02T05:49:26.497920", "MEAN_MOTION": 15.01302222, "ECCENTRICITY": 0.0019551, "INCLINATION": 86.3366, "RA_OF_ASC_NODE": 317.6054, "ARG_OF_PERICENTER": 65.7136, "MEAN_ANOMALY": 294.6136, "EPHEMERIS_TYPE": 0, "CLASSIFICATION_TYPE": "U", "NORAD_CAT_ID": 35929, "ELEMENT_SET_NO": 999, "REV_AT_EPOCH": 87622, "BSTAR": 0.0029859, "MEAN_MOTION_DOT": 0.00038744, "MEAN_MOTION_DDOT": 0}, "tle": {"line1": "1 35929U 97051UN  25336.24266780  .00038744  00000+0  29859-2 0  9994", "line2": "2 35929  86.3366 317.6054 0019551  65.7136 294.6136 15.01302222876221"}}, "geometry": {"type": "Point", "coordinates": [-45.055992506103046, -18.733500881996644]}}]}